start=new Date('2023-05-13T00:00:00.000Z').valueOf();
sats=[{"TLE_LINE2":"2 47659  53.0533 264.7210 0001127  59.8926 300.2175 15.06375697125582","MEAN_ELEMENT_THEORY":"SGP4","COUNTRY_CODE":"US","CLASSIFICATION_TYPE":"U","RCS_SIZE":"LARGE","NORAD_CAT_ID":"47659","EPHEMERIS_TYPE":"0","FILE":"3906024","GP_ID":"231677590","ECCENTRICITY":"0.00011270","TLE_LINE1":"1 47659U 21012AR  23132.62859885  .00024616  00000-0  16668-2 0  9997","DECAY_DATE":null,"MEAN_MOTION_DDOT":"0.0000000000000","EPOCH":"2023-05-12T15:05:10.940640","REV_AT_EPOCH":"12558","ARG_OF_PERICENTER":"59.8926","PERIAPSIS":"546.508","LAUNCH_DATE":"2021-02-16","INCLINATION":"53.0533","ELEMENT_SET_NO":"999","OBJECT_ID":"2021-012AR","SEMIMAJOR_AXIS":"6925.423","REF_FRAME":"TEME","BSTAR":"0.00166680000000","RA_OF_ASC_NODE":"264.7210","OBJECT_TYPE":"PAYLOAD","OBJECT_NAME":"STARLINK-2043","MEAN_MOTION_DOT":"0.00024616","APOAPSIS":"548.069","MEAN_MOTION":"15.06375697","SITE":"AFETR","CENTER_NAME":"EARTH","PERIOD":"95.594","MEAN_ANOMALY":"300.2175","TIME_SYSTEM":"UTC"},{"RCS_SIZE":"LARGE","NORAD_CAT_ID":"47660","TLE_LINE2":"2 47660  53.0544 254.3669 0000779  54.0185 306.0877 15.06383851125758","COUNTRY_CODE":"US","MEAN_ELEMENT_THEORY":"SGP4","CLASSIFICATION_TYPE":"U","EPHEMERIS_TYPE":"0","TLE_LINE1":"1 47660U 21012AS  23132.84707190  .00033022  00000-0  22264-2 0  9994","FILE":"3906024","GP_ID":"231677836","ECCENTRICITY":"0.00007790","DECAY_DATE":null,"MEAN_MOTION_DDOT":"0.0000000000000","EPOCH":"2023-05-12T20:19:47.012160","ELEMENT_SET_NO":"999","INCLINATION":"53.0544","OBJECT_ID":"2021-012AS","REV_AT_EPOCH":"12575","ARG_OF_PERICENTER":"54.0185","PERIAPSIS":"546.724","LAUNCH_DATE":"2021-02-16","RA_OF_ASC_NODE":"254.3669","BSTAR":"0.00222640000000","SEMIMAJOR_AXIS":"6925.398","REF_FRAME":"TEME","OBJECT_NAME":"STARLINK-2044","MEAN_MOTION_DOT":"0.00033022","APOAPSIS":"547.803","OBJECT_TYPE":"PAYLOAD","SITE":"AFETR","CENTER_NAME":"EARTH","PERIOD":"95.593","MEAN_ANOMALY":"306.0877","TIME_SYSTEM":"UTC","MEAN_MOTION":"15.06383851"},{"MEAN_MOTION_DDOT":"0.0000000000000","DECAY_DATE":null,"EPOCH":"2023-05-12T21:35:19.130208","TLE_LINE1":"1 47661U 21012AT  23132.89952697  .00034049  00000-0  22929-2 0  9992","ECCENTRICITY":"0.00012780","GP_ID":"231707569","FILE":"3906381","EPHEMERIS_TYPE":"0","NORAD_CAT_ID":"47661","RCS_SIZE":"LARGE","CLASSIFICATION_TYPE":"U","COUNTRY_CODE":"US","MEAN_ELEMENT_THEORY":"SGP4","TLE_LINE2":"2 47661  53.0542   3.5019 0001278  76.1313 283.9819 15.06413501124735","MEAN_ANOMALY":"283.9819","TIME_SYSTEM":"UTC","PERIOD":"95.591","CENTER_NAME":"EARTH","SITE":"AFETR","MEAN_MOTION":"15.06413501","APOAPSIS":"548.057","MEAN_MOTION_DOT":"0.00034049","OBJECT_NAME":"STARLINK-2051","OBJECT_TYPE":"PAYLOAD","RA_OF_ASC_NODE":"3.5019","BSTAR":"0.00229290000000","REF_FRAME":"TEME","SEMIMAJOR_AXIS":"6925.307","OBJECT_ID":"2021-012AT","INCLINATION":"53.0542","ELEMENT_SET_NO":"999","LAUNCH_DATE":"2021-02-16","PERIAPSIS":"546.287","ARG_OF_PERICENTER":"76.1313","REV_AT_EPOCH":"12473"},{"EPHEMERIS_TYPE":"0","TLE_LINE2":"2 47662  53.0541   3.5885 0001403  65.3620 294.7515 15.06418037124751","MEAN_ELEMENT_THEORY":"SGP4","COUNTRY_CODE":"US","CLASSIFICATION_TYPE":"U","RCS_SIZE":"LARGE","NORAD_CAT_ID":"47662","DECAY_DATE":null,"MEAN_MOTION_DDOT":"0.0000000000000","EPOCH":"2023-05-12T21:07:25.235616","FILE":"3906381","GP_ID":"231707821","ECCENTRICITY":"0.00014030","TLE_LINE1":"1 47662U 21012AU  23132.88015319  .00034123  00000-0  22975-2 0  9997","SEMIMAJOR_AXIS":"6925.293","REF_FRAME":"TEME","RA_OF_ASC_NODE":"3.5885","BSTAR":"0.00229750000000","REV_AT_EPOCH":"12475","ARG_OF_PERICENTER":"65.3620","PERIAPSIS":"546.187","LAUNCH_DATE":"2021-02-16","INCLINATION":"53.0541","ELEMENT_SET_NO":"999","OBJECT_ID":"2021-012AU","MEAN_MOTION":"15.06418037","SITE":"AFETR","CENTER_NAME":"EARTH","PERIOD":"95.591","MEAN_ANOMALY":"294.7515","TIME_SYSTEM":"UTC","OBJECT_TYPE":"PAYLOAD","OBJECT_NAME":"STARLINK-2052","MEAN_MOTION_DOT":"0.00034123","APOAPSIS":"548.130"},{"CLASSIFICATION_TYPE":"U","MEAN_ELEMENT_THEORY":"SGP4","COUNTRY_CODE":"US","TLE_LINE2":"2 47663  53.0534 284.8143 0000957  62.0802 298.0283 15.06374508125837","NORAD_CAT_ID":"47663","RCS_SIZE":"LARGE","EPHEMERIS_TYPE":"0","ECCENTRICITY":"0.00009570","GP_ID":"231707072","FILE":"3906381","TLE_LINE1":"1 47663U 21012AV  23132.67839296  .00024181  00000-0  16378-2 0  9996","DECAY_DATE":null,"EPOCH":"2023-05-12T16:16:53.151744","MEAN_MOTION_DDOT":"0.0000000000000","LAUNCH_DATE":"2021-02-16","PERIAPSIS":"546.629","REV_AT_EPOCH":"12583","ARG_OF_PERICENTER":"62.0802","OBJECT_ID":"2021-012AV","INCLINATION":"53.0534","ELEMENT_SET_NO":"999","REF_FRAME":"TEME","SEMIMAJOR_AXIS":"6925.427","RA_OF_ASC_NODE":"284.8143","BSTAR":"0.00163780000000","OBJECT_TYPE":"PAYLOAD","APOAPSIS":"547.954","MEAN_MOTION_DOT":"0.00024181","OBJECT_NAME":"STARLINK-2053","MEAN_MOTION":"15.06374508","TIME_SYSTEM":"UTC","MEAN_ANOMALY":"298.0283","PERIOD":"95.594","CENTER_NAME":"EARTH","SITE":"AFETR"},{"PERIOD":"95.591","SITE":"AFETR","CENTER_NAME":"EARTH","TIME_SYSTEM":"UTC","MEAN_ANOMALY":"257.0384","MEAN_MOTION":"15.06421885","OBJECT_NAME":"STARLINK-2054","APOAPSIS":"547.896","MEAN_MOTION_DOT":"0.00022341","OBJECT_TYPE":"PAYLOAD","RA_OF_ASC_NODE":"3.5866","BSTAR":"0.00151310000000","SEMIMAJOR_AXIS":"6925.281","REF_FRAME":"TEME","INCLINATION":"53.0546","ELEMENT_SET_NO":"999","OBJECT_ID":"2021-012AW","REV_AT_EPOCH":"12475","ARG_OF_PERICENTER":"103.0726","LAUNCH_DATE":"2021-02-16","PERIAPSIS":"546.396","DECAY_DATE":null,"EPOCH":"2023-05-12T21:08:46.293504","MEAN_MOTION_DDOT":"0.0000000000000","TLE_LINE1":"1 47664U 21012AW  23132.88109136  .00022341  00000-0  15131-2 0  9995","FILE":"3906381","ECCENTRICITY":"0.00010830","GP_ID":"231707322","EPHEMERIS_TYPE":"0","NORAD_CAT_ID":"47664","RCS_SIZE":"LARGE","COUNTRY_CODE":"US","MEAN_ELEMENT_THEORY":"SGP4","TLE_LINE2":"2 47664  53.0546   3.5866 0001083 103.0726 257.0384 15.06421885124759","CLASSIFICATION_TYPE":"U"},{"CLASSIFICATION_TYPE":"U","COUNTRY_CODE":"US","MEAN_ELEMENT_THEORY":"SGP4","TLE_LINE2":"2 47665  53.0542 358.7216 0001032 101.3561 258.7543 15.06423945124813","NORAD_CAT_ID":"47665","RCS_SIZE":"LARGE","EPHEMERIS_TYPE":"0","ECCENTRICITY":"0.00010320","GP_ID":"231708069","FILE":"3906381","TLE_LINE1":"1 47665U 21012AX  23132.86128227  .00021002  00000-0  14237-2 0  9995","EPOCH":"2023-05-12T20:40:14.788128","DECAY_DATE":null,"MEAN_MOTION_DDOT":"0.0000000000000","LAUNCH_DATE":"2021-02-16","PERIAPSIS":"546.425","REV_AT_EPOCH":"12481","ARG_OF_PERICENTER":"101.3561","OBJECT_ID":"2021-012AX","ELEMENT_SET_NO":"999","INCLINATION":"53.0542","SEMIMAJOR_AXIS":"6925.275","REF_FRAME":"TEME","RA_OF_ASC_NODE":"358.7216","BSTAR":"0.00142370000000","OBJECT_TYPE":"PAYLOAD","APOAPSIS":"547.855","MEAN_MOTION_DOT":"0.00021002","OBJECT_NAME":"STARLINK-2056","MEAN_MOTION":"15.06423945","TIME_SYSTEM":"UTC","MEAN_ANOMALY":"258.7543","PERIOD":"95.591","SITE":"AFETR","CENTER_NAME":"EARTH"},{"MEAN_MOTION_DDOT":"0.0000000000000","DECAY_DATE":null,"EPOCH":"2023-05-12T18:59:28.506624","TLE_LINE1":"1 47666U 21012AY  23132.79130216  .00018825  00000-0  12785-2 0  9994","GP_ID":"231708321","ECCENTRICITY":"0.00009720","FILE":"3906381","EPHEMERIS_TYPE":"0","RCS_SIZE":"LARGE","NORAD_CAT_ID":"47666","CLASSIFICATION_TYPE":"U","TLE_LINE2":"2 47666  53.0543 359.3462 0000972 113.5500 246.5591 15.06423846124802","MEAN_ELEMENT_THEORY":"SGP4","COUNTRY_CODE":"US","MEAN_ANOMALY":"246.5591","TIME_SYSTEM":"UTC","CENTER_NAME":"EARTH","SITE":"AFETR","PERIOD":"95.591","MEAN_MOTION":"15.06423846","MEAN_MOTION_DOT":"0.00018825","APOAPSIS":"547.814","OBJECT_NAME":"STARLINK-2057","OBJECT_TYPE":"PAYLOAD","RA_OF_ASC_NODE":"359.3462","BSTAR":"0.00127850000000","SEMIMAJOR_AXIS":"6925.275","REF_FRAME":"TEME","OBJECT_ID":"2021-012AY","ELEMENT_SET_NO":"999","INCLINATION":"53.0543","PERIAPSIS":"546.467","LAUNCH_DATE":"2021-02-16","ARG_OF_PERICENTER":"113.5500","REV_AT_EPOCH":"12480"},{"MEAN_MOTION_DDOT":"0.0000000000000","DECAY_DATE":null,"EPOCH":"2023-05-12T04:22:57.704448","FILE":"3905921","ECCENTRICITY":"0.00010860","GP_ID":"231670995","TLE_LINE1":"1 47667U 21012AZ  23132.18261232  .00025292  00000-0  17122-2 0  9997","EPHEMERIS_TYPE":"0","COUNTRY_CODE":"US","MEAN_ELEMENT_THEORY":"SGP4","TLE_LINE2":"2 47667  53.0558  26.7200 0001086  64.5013 295.6088 15.06368824124344","CLASSIFICATION_TYPE":"U","NORAD_CAT_ID":"47667","RCS_SIZE":"LARGE","MEAN_MOTION":"15.06368824","PERIOD":"95.594","CENTER_NAME":"EARTH","SITE":"AFETR","TIME_SYSTEM":"UTC","MEAN_ANOMALY":"295.6088","OBJECT_TYPE":"PAYLOAD","OBJECT_NAME":"STARLINK-2058","APOAPSIS":"548.061","MEAN_MOTION_DOT":"0.00025292","SEMIMAJOR_AXIS":"6925.444","REF_FRAME":"TEME","BSTAR":"0.00171220000000","RA_OF_ASC_NODE":"26.7200","ARG_OF_PERICENTER":"64.5013","REV_AT_EPOCH":"12434","LAUNCH_DATE":"2021-02-16","PERIAPSIS":"546.557","ELEMENT_SET_NO":"999","INCLINATION":"53.0558","OBJECT_ID":"2021-012AZ"},{"TLE_LINE2":"2 47668  53.0542   3.5526 0001081  68.8776 291.2329 15.06411163124750","COUNTRY_CODE":"US","MEAN_ELEMENT_THEORY":"SGP4","CLASSIFICATION_TYPE":"U","RCS_SIZE":"LARGE","NORAD_CAT_ID":"47668","EPHEMERIS_TYPE":"0","FILE":"3906381","GP_ID":"231706823","ECCENTRICITY":"0.00010810","TLE_LINE1":"1 47668U 21012BA  23132.88846906  .00032708  00000-0  22039-2 0  9995","DECAY_DATE":null,"EPOCH":"2023-05-12T21:19:23.726784","MEAN_MOTION_DDOT":"0.0000000000000","ARG_OF_PERICENTER":"68.8776","REV_AT_EPOCH":"12475","PERIAPSIS":"546.431","LAUNCH_DATE":"2021-02-16","ELEMENT_SET_NO":"999","INCLINATION":"53.0542","OBJECT_ID":"2021-012BA","SEMIMAJOR_AXIS":"6925.314","REF_FRAME":"TEME","RA_OF_ASC_NODE":"3.5526","BSTAR":"0.00220390000000","OBJECT_TYPE":"PAYLOAD","OBJECT_NAME":"STARLINK-2059","MEAN_MOTION_DOT":"0.00032708","APOAPSIS":"547.928","MEAN_MOTION":"15.06411163","CENTER_NAME":"EARTH","SITE":"AFETR","PERIOD":"95.591","TIME_SYSTEM":"UTC","MEAN_ANOMALY":"291.2329"}];
